2024-226A               
1 62185U 24226A   26175.33266707 -.00000131  00000+0  53695-5 0  9991
2 62185  50.0059 237.4917 0056490 172.4867 187.6877 13.60153040 77680
2024-226B               
1 62186U 24226B   26175.28267542 -.00000079  00000+0  87867-4 0  9992
2 62186  50.0052 302.8410 0012391  98.9096 261.3185 13.41501687 76669
TJS-13                  
1 62188U 24227A   26169.39534496  .00000424  00000+0  00000+0 0  9997
2 62188  63.7662  38.7135 6958422 269.4897  17.4132  2.00574706 11275
HAISHAO-1               
1 62190U 24228A   26175.27183368  .00026957  00000+0  26707-3 0  9998
2 62190  42.9806 322.9608 0005214 323.4972  36.5537 15.65266233 88690
STARLINK-32686          
1 62192U 24229A   26175.27160019  .00014997  00000+0  55322-3 0  9995
2 62192  43.0051  25.1797 0000621  64.9838 295.1079 15.27591387 86907
STARLINK-32688          
1 62193U 24229B   26175.28909687  .00010953  00000+0  40689-3 0  9997
2 62193  43.0008  28.7643 0001261 268.4789  91.5918 15.27586141 86863
STARLINK-32684          
1 62194U 24229C   26174.87107658  .00021517  00000+0  78889-3 0  9991
2 62194  43.0027  30.7848 0001779 273.5605  86.5043 15.27590575 87986
STARLINK-32672          
1 62195U 24229D   26175.27752902  .00024144  00000+0  88347-3 0  9994
2 62195  42.9988  28.6756 0002132 273.2552  86.8056 15.27599186 86867
STARLINK-32682          
1 62196U 24229E   26175.19957996  .00013281  00000+0  49119-3 0  9990
2 62196  42.9991 356.5331 0001478 268.2519  91.8163 15.27585646 87225
STARLINK-32663          
1 62197U 24229F   26174.98400597  .00015720  00000+0  57952-3 0  9991
2 62197  43.0040  30.7706 0001290 273.0181  87.0523 15.27581445 86815
STARLINK-32640          
1 62198U 24229G   26174.94288757  .00016832  00000+0  61961-3 0  9990
2 62198  43.0007  30.4628 0001506 277.8276  82.2405 15.27589741 86819
STARLINK-32653          
1 62199U 24229H   26175.29133933  .00017282  00000+0  63578-3 0  9991
2 62199  43.0038  21.8101 0001635 268.5491  91.5173 15.27594548 86943
STARLINK-32647          
1 62200U 24229J   26175.29166377  .00022108  00000+0  81037-3 0  9995
2 62200  43.0054  28.7793 0001298 282.6849  77.3858 15.27586298 86862
STARLINK-32667          
1 62201U 24229K   26174.99413725  .00028122  00000+0  10270-2 0  9996
2 62201  43.0046  29.9900 0001729 266.8564  93.2090 15.27596683 86824
STARLINK-32655          
1 62202U 24229L   26174.97629550  .00008927  00000+0  33344-3 0  9999
2 62202  43.0032  30.7102 0001339 272.1736  87.8962 15.27590578 86815
STARLINK-32665          
1 62203U 24229M   26175.28523891  .00012729  00000+0  47117-3 0  9994
2 62203  42.9992  28.7333 0001726 275.7561  84.3094 15.27588793 86866
STARLINK-32664          
1 62204U 24229N   26175.25002315  .00187008  00000+0  18910-2 0  9996
2 62204  42.9919  11.2447 0028720 278.6856 356.2206 15.63433684  5833
STARLINK-32660          
1 62205U 24229P   26174.86786854  .00022368  00000+0  81968-3 0  9991
2 62205  43.0028  16.8862 0001496 270.4126  89.6555 15.27588819 86968
STARLINK-32448          
1 62206U 24229Q   26174.86722122  .00021017  00000+0  77080-3 0  9990
2 62206  43.0028  30.7522 0001725 261.6681  98.3975 15.27591575 86809
STARLINK-32430          
1 62207U 24229R   26174.64342614  .00014664  00000+0  54126-3 0  9997
2 62207  43.0028  29.0610 0001006 267.6846  92.3891 15.27584859 86808
STARLINK-32675          
1 62208U 24229S   26175.28137974  .00013190  00000+0  48771-3 0  9992
2 62208  43.0002  28.7034 0001135 267.8144  92.2578 15.27599066 86866
STARLINK-32671          
1 62209U 24229T   26174.99042725  .00014052  00000+0  51906-3 0  9991
2 62209  43.0045  30.8128 0002108 264.7446  95.3165 15.27588224 86819
STARLINK-32670          
1 62210U 24229U   26174.88135692  .00020167  00000+0  73995-3 0  9993
2 62210  43.0014  30.8595 0002034 272.5711  87.4907 15.27598869 86806
STARLINK-32642          
1 62211U 24229V   26174.94031697  .00010937  00000+0  40629-3 0  9993
2 62211  42.9999  30.4398 0001616 274.9971  85.0696 15.27586327 86819
STARLINK-32668          
1 62212U 24229W   26174.97420812  .00013228  00000+0  48910-3 0  9995
2 62212  43.0051  27.2415 0001809 261.2028  98.8619 15.27597742 86855
STARLINK-32669          
1 62213U 24229X   26174.98014587  .00014265  00000+0  52674-3 0  9999
2 62213  43.0075  30.7326 0001285 259.7789 100.2918 15.27589992 86810
STARLINK-32666          
1 62214U 24229Y   26174.98657730  .00011690  00000+0  43364-3 0  9998
2 62214  43.0040  30.7862 0001504 279.2336  80.8346 15.27582481 86811
STARLINK-32662          
1 62215U 24229Z   26174.97244046  .00006428  00000+0  24288-3 0  9997
2 62215  43.0022  30.6814 0001052 268.3541  91.7190 15.27584455 86814
COSMOS 2580             
1 62216U 24230A   26172.53197468 -.00000059  00000+0  11553-4 0  9992
2 62216  67.1489  40.2872 0006207 263.1677  96.8702 13.96673098 78744
STARLINK-11394 [DTC]    
1 62218U 24231A   26174.71376917  .00227279  00000+0  18247-2 0  9994
2 62218  53.1560 298.6180 0001636  66.1509 293.9680 15.69778623 90064
STARLINK-11490 [DTC]    
1 62219U 24231B   26174.71866561  .00192756  00000+0  15522-2 0  9998
2 62219  53.1558 298.6493 0001155 246.5903 113.4994 15.69818764 90062
STARLINK-11466 [DTC]    
1 62220U 24231C   26175.04683425  .00171541  00000+0  13894-2 0  9992
2 62220  53.1557 297.1430 0002024  79.5623 280.5623 15.69749470 90115
STARLINK-11468 [DTC]    
1 62221U 24231D   26175.05664374  .00149171  00000+0  12122-2 0  9993
2 62221  53.1569 297.2073 0001831  81.7448 278.3778 15.69746511 90117
STARLINK-11488 [DTC]    
1 62222U 24231E   26175.04192549  .00164694  00000+0  13351-2 0  9995
2 62222  53.1552 297.1107 0001377  81.9282 278.1892 15.69751956 90114
STARLINK-11483 [DTC]    
1 62223U 24231F   26174.88024085  .00188576  00000+0  15210-2 0  9997
2 62223  53.1565 297.5115 0000409 115.1922 244.9138 15.69793026 90093
STARLINK-11492 [DTC]    
1 62224U 24231G   26175.05174616  .00150659  00000+0  12163-2 0  9999
2 62224  53.1560 297.1862 0002829  66.5326 293.5989 15.69898541 90114
STARLINK-11471 [DTC]    
1 62225U 24231H   26174.50315092  .00160069  00000+0  12995-2 0  9993
2 62225  53.1566 299.4378 0000607  41.5182 318.5882 15.69732123 90037
STARLINK-11475 [DTC]    
1 62226U 24231J   26174.63538082  .00107446  00000+0  87918-3 0  9992
2 62226  53.1564 298.8293 0001259  76.7327 283.3831 15.69739979 90051
STARLINK-11469 [DTC]    
1 62227U 24231K   26174.96353310  .00194177  00000+0  15600-2 0  9993
2 62227  53.1567 297.3237 0000314 193.1359 166.9651 15.69868618 90102
STARLINK-11476 [DTC]    
1 62228U 24231L   26175.06635051  .00256972  00000+0  20525-2 0  9995
2 62228  53.1557 296.5360 0001512  52.2555 307.8599 15.69809144 90133
STARLINK-11485 [DTC]    
1 62229U 24231M   26174.64028607  .00196977  00000+0  15890-2 0  9999
2 62229  53.1567 298.8616 0002377 289.3758  70.7003 15.69761511 90054
STARLINK-11481 [DTC]    
1 62230U 24231N   26175.06154878  .00150992  00000+0  12260-2 0  9993
2 62230  53.1561 297.2362 0002269  81.9241 278.2034 15.69759987 90114
STARLINK-32650          
1 62231U 24231P   26174.98935275 -.00000102  00000+0  84578-5 0  9994
2 62231  53.1574  85.8574 0000328  20.5556 339.5458 15.31706923 88048
STARLINK-32636          
1 62232U 24231Q   26175.03310306  .00023220  00000+0  79361-3 0  9991
2 62232  53.1586  85.4221 0001160  87.2231 272.8903 15.30201557 88059
STARLINK-32643          
1 62233U 24231R   26175.00021081  .00017870  00000+0  58595-3 0  9998
2 62233  53.1583  72.4404 0001006 118.4803 241.6300 15.31715473 88229
STARLINK-32652          
1 62234U 24231S   26174.99099734  .00014813  00000+0  51123-3 0  9990
2 62234  53.1585  85.8654 0001292 100.8324 259.2822 15.30202122 88031
STARLINK-32631          
1 62235U 24231T   26174.98154274  .00023064  00000+0  75231-3 0  9995
2 62235  53.1604  72.3230 0001626 103.9215 256.1968 15.31715607 88225
STARLINK-32641          
1 62236U 24231U   26174.99360829  .00013244  00000+0  45833-3 0  9996
2 62236  53.1590  73.0989 0000685  95.1200 264.9879 15.30210461 88213
QIANFAN-37              
1 62238U 24232B   26175.22363383  .00000071  00000+0  90818-4 0  9992
2 62238  89.0069  21.8783 0001430  91.0647 269.0668 13.51009652125297
QIANFAN-38              
1 62239U 24232C   26175.24830889  .00000056  00000+0  67644-4 0  9999
2 62239  89.0076  21.8048 0014658   4.4271 355.7007 13.51006600125354
QIANFAN-39              
1 62240U 24232D   26175.23956452  .00000134  00000+0  50513-4 0  9999
2 62240  89.0058  15.2634 0016843 156.9799 203.2153 14.25527798128956
QIANFAN-40              
1 62241U 24232E   26175.28120780  .00000060  00000+0  73756-4 0  9994
2 62241  89.0103  21.4400 0013988  12.6545 347.4954 13.51008327125724
QIANFAN-41              
1 62242U 24232F   26175.21540156  .00000056  00000+0  68075-4 0  9994
2 62242  89.0074  21.7561 0013938   0.9719 359.1457 13.51010721125371
QIANFAN-42              
1 62243U 24232G   26175.22035467  .00000111  00000+0  41445-4 0  9994
2 62243  89.0056  15.3414 0015438 162.8993 197.2723 14.24616499128912
QIANFAN-43              
1 62244U 24232H   26175.21127979  .00000059  00000+0  73561-4 0  9999
2 62244  89.0078  21.8303 0015674   5.2803 354.8511 13.51010420 93983
QIANFAN-44              
1 62245U 24232J   26175.27297031  .00000075  00000+0  97716-4 0  9999
2 62245  89.0076  21.6317 0013762   3.2369 356.8869 13.51012435125461
QIANFAN-45              
1 62246U 24232K   26175.24010882  .00000060  00000+0  74781-4 0  9995
2 62246  89.0080  21.7885 0014420   2.5436 357.5785 13.51009884125387
QIANFAN-46              
1 62247U 24232L   26175.26477615  .00000059  00000+0  72352-4 0  9999
2 62247  89.0076  21.8471 0014656   7.8881 352.2497 13.51010627125343
QIANFAN-47              
1 62248U 24232M   26175.26889480  .00000068  00000+0  86610-4 0  9999
2 62248  89.0072  21.7719 0015051   6.8036 353.3316 13.51009538125379
